start=new Date('2023-04-22T00:00:00.000Z').valueOf();
sats=[{"ECCENTRICITY":"0.00010920","INCLINATION":"53.2154","ARG_OF_PERICENTER":"91.5070","TLE_LINE1":"1 52846U 22062S   23111.64065208 -.00000156  00000-0  83083-5 0  9996","GP_ID":"230530041","COUNTRY_CODE":"US","SEMIMAJOR_AXIS":"6917.881","CLASSIFICATION_TYPE":"U","RCS_SIZE":"LARGE","MEAN_MOTION_DOT":"-0.00000156","PERIOD":"95.438","LAUNCH_DATE":"2022-06-17","CENTER_NAME":"EARTH","REV_AT_EPOCH":"4681","EPHEMERIS_TYPE":"0","MEAN_ELEMENT_THEORY":"SGP4","DECAY_DATE":null,"OBJECT_TYPE":"PAYLOAD","OBJECT_NAME":"STARLINK-4212","PERIAPSIS":"538.991","TLE_LINE2":"2 52846  53.2154  81.4487 0001092  91.5070 268.6047 15.08839684 46817","OBJECT_ID":"2022-062S","MEAN_ANOMALY":"268.6047","RA_OF_ASC_NODE":"81.4487","ELEMENT_SET_NO":"999","BSTAR":"0.00000830830000","NORAD_CAT_ID":"52846","EPOCH":"2023-04-21T15:22:32.339712","REF_FRAME":"TEME","SITE":"AFETR","MEAN_MOTION":"15.08839684","TIME_SYSTEM":"UTC","MEAN_MOTION_DDOT":"0.0000000000000","APOAPSIS":"540.502","FILE":"3891716"},{"MEAN_MOTION":"15.08843299","FILE":"3891695","APOAPSIS":"540.467","MEAN_MOTION_DDOT":"0.0000000000000","TIME_SYSTEM":"UTC","RA_OF_ASC_NODE":"80.3022","MEAN_ANOMALY":"276.9658","SITE":"AFETR","REF_FRAME":"TEME","EPOCH":"2023-04-21T21:26:48.071616","NORAD_CAT_ID":"52847","BSTAR":"0.00022195000000","ELEMENT_SET_NO":"999","OBJECT_TYPE":"PAYLOAD","OBJECT_NAME":"STARLINK-4206","DECAY_DATE":null,"MEAN_ELEMENT_THEORY":"SGP4","EPHEMERIS_TYPE":"0","REV_AT_EPOCH":"4734","OBJECT_ID":"2022-062T","TLE_LINE2":"2 52847  53.2162  80.3022 0001058  83.1455 276.9658 15.08843299 47342","PERIAPSIS":"539.003","CLASSIFICATION_TYPE":"U","SEMIMAJOR_AXIS":"6917.870","TLE_LINE1":"1 52847U 22062T   23111.89361194  .00003247  00000-0  22195-3 0  9995","GP_ID":"230505030","COUNTRY_CODE":"US","INCLINATION":"53.2162","ECCENTRICITY":"0.00010580","ARG_OF_PERICENTER":"83.1455","LAUNCH_DATE":"2022-06-17","CENTER_NAME":"EARTH","MEAN_MOTION_DOT":"0.00003247","PERIOD":"95.437","RCS_SIZE":"LARGE"},{"TIME_SYSTEM":"UTC","APOAPSIS":"540.586","FILE":"3891716","MEAN_MOTION_DDOT":"0.0000000000000","MEAN_MOTION":"15.08839148","NORAD_CAT_ID":"52848","EPOCH":"2023-04-21T15:31:45.381792","ELEMENT_SET_NO":"999","BSTAR":"0.00004709300000","REF_FRAME":"TEME","SITE":"AFETR","MEAN_ANOMALY":"264.2745","RA_OF_ASC_NODE":"81.4081","TLE_LINE2":"2 52848  53.2158  81.4081 0001212  95.8386 264.2745 15.08839148 46816","PERIAPSIS":"538.910","OBJECT_ID":"2022-062U","EPHEMERIS_TYPE":"0","REV_AT_EPOCH":"4681","OBJECT_TYPE":"PAYLOAD","OBJECT_NAME":"STARLINK-4202","DECAY_DATE":null,"MEAN_ELEMENT_THEORY":"SGP4","RCS_SIZE":"LARGE","LAUNCH_DATE":"2022-06-17","CENTER_NAME":"EARTH","MEAN_MOTION_DOT":"0.00000462","PERIOD":"95.438","ECCENTRICITY":"0.00012120","INCLINATION":"53.2158","ARG_OF_PERICENTER":"95.8386","CLASSIFICATION_TYPE":"U","COUNTRY_CODE":"US","TLE_LINE1":"1 52848U 22062U   23111.64705303  .00000462  00000-0  47093-4 0  9994","GP_ID":"230528540","SEMIMAJOR_AXIS":"6917.883"},{"OBJECT_ID":"2022-062V","PERIAPSIS":"538.923","TLE_LINE2":"2 52849  53.2171  71.5215 0001169  85.4733 274.6393 15.08844330 46940","DECAY_DATE":null,"MEAN_ELEMENT_THEORY":"SGP4","OBJECT_NAME":"STARLINK-4197","OBJECT_TYPE":"PAYLOAD","REV_AT_EPOCH":"4694","EPHEMERIS_TYPE":"0","MEAN_MOTION_DOT":"-0.00000011","PERIOD":"95.437","CENTER_NAME":"EARTH","LAUNCH_DATE":"2022-06-17","RCS_SIZE":"LARGE","COUNTRY_CODE":"US","TLE_LINE1":"1 52849U 22062V   23111.62221224 -.00000011  00000-0  17406-4 0  9994","GP_ID":"230529289","SEMIMAJOR_AXIS":"6917.867","CLASSIFICATION_TYPE":"U","ECCENTRICITY":"0.00011690","ARG_OF_PERICENTER":"85.4733","INCLINATION":"53.2171","MEAN_MOTION_DDOT":"0.0000000000000","APOAPSIS":"540.541","FILE":"3891716","TIME_SYSTEM":"UTC","MEAN_MOTION":"15.08844330","REF_FRAME":"TEME","SITE":"AFETR","ELEMENT_SET_NO":"999","BSTAR":"0.00001740600000","NORAD_CAT_ID":"52849","EPOCH":"2023-04-21T14:55:59.137536","RA_OF_ASC_NODE":"71.5215","MEAN_ANOMALY":"274.6393"},{"MEAN_MOTION":"15.08838087","TIME_SYSTEM":"UTC","FILE":"3891716","APOAPSIS":"540.563","MEAN_MOTION_DDOT":"0.0000000000000","MEAN_ANOMALY":"272.3324","RA_OF_ASC_NODE":"82.9619","EPOCH":"2023-04-21T07:13:38.035488","NORAD_CAT_ID":"52850","BSTAR":"-0.00004220900000","ELEMENT_SET_NO":"999","SITE":"AFETR","REF_FRAME":"TEME","EPHEMERIS_TYPE":"0","REV_AT_EPOCH":"4676","OBJECT_TYPE":"PAYLOAD","OBJECT_NAME":"STARLINK-4187","MEAN_ELEMENT_THEORY":"SGP4","DECAY_DATE":null,"TLE_LINE2":"2 52850  53.2160  82.9619 0001173  87.7803 272.3324 15.08838087 46763","PERIAPSIS":"538.940","OBJECT_ID":"2022-062W","INCLINATION":"53.2160","ECCENTRICITY":"0.00011730","ARG_OF_PERICENTER":"87.7803","CLASSIFICATION_TYPE":"U","GP_ID":"230529541","TLE_LINE1":"1 52850U 22062W   23111.30113467 -.00000959  00000-0 -42209-4 0  9991","COUNTRY_CODE":"US","SEMIMAJOR_AXIS":"6917.886","RCS_SIZE":"LARGE","CENTER_NAME":"EARTH","LAUNCH_DATE":"2022-06-17","MEAN_MOTION_DOT":"-0.00000959","PERIOD":"95.438"},{"MEAN_ANOMALY":"279.5509","RA_OF_ASC_NODE":"71.5394","ELEMENT_SET_NO":"999","BSTAR":"0.00003221100000","NORAD_CAT_ID":"52851","EPOCH":"2023-04-21T14:50:41.248608","REF_FRAME":"TEME","SITE":"AFETR","MEAN_MOTION":"15.08841394","TIME_SYSTEM":"UTC","MEAN_MOTION_DDOT":"0.0000000000000","APOAPSIS":"540.656","FILE":"3891716","ARG_OF_PERICENTER":"80.5632","ECCENTRICITY":"0.00013220","INCLINATION":"53.2180","SEMIMAJOR_AXIS":"6917.876","TLE_LINE1":"1 52851U 22062X   23111.61853297  .00000225  00000-0  32211-4 0  9994","GP_ID":"230528295","COUNTRY_CODE":"US","CLASSIFICATION_TYPE":"U","RCS_SIZE":"LARGE","MEAN_MOTION_DOT":"0.00000225","PERIOD":"95.437","LAUNCH_DATE":"2022-06-17","CENTER_NAME":"EARTH","REV_AT_EPOCH":"4694","EPHEMERIS_TYPE":"0","DECAY_DATE":null,"MEAN_ELEMENT_THEORY":"SGP4","OBJECT_TYPE":"PAYLOAD","OBJECT_NAME":"STARLINK-3809","PERIAPSIS":"538.827","TLE_LINE2":"2 52851  53.2180  71.5394 0001322  80.5632 279.5509 15.08841394 46946","OBJECT_ID":"2022-062X"},{"TLE_LINE2":"2 52852  53.2170  71.5042 0001308  93.6219 266.4922 15.08841860 46948","PERIAPSIS":"538.835","OBJECT_ID":"2022-062Y","EPHEMERIS_TYPE":"0","REV_AT_EPOCH":"4694","OBJECT_TYPE":"PAYLOAD","OBJECT_NAME":"STARLINK-4184","MEAN_ELEMENT_THEORY":"SGP4","DECAY_DATE":null,"RCS_SIZE":"LARGE","LAUNCH_DATE":"2022-06-17","CENTER_NAME":"EARTH","PERIOD":"95.437","MEAN_MOTION_DOT":"-0.00000748","INCLINATION":"53.2170","ECCENTRICITY":"0.00013080","ARG_OF_PERICENTER":"93.6219","CLASSIFICATION_TYPE":"U","TLE_LINE1":"1 52852U 22062Y   23111.62589380 -.00000748  00000-0 -28940-4 0  9991","GP_ID":"230529040","SEMIMAJOR_AXIS":"6917.875","COUNTRY_CODE":"US","TIME_SYSTEM":"UTC","APOAPSIS":"540.645","FILE":"3891716","MEAN_MOTION_DDOT":"0.0000000000000","MEAN_MOTION":"15.08841860","NORAD_CAT_ID":"52852","EPOCH":"2023-04-21T15:01:17.224320","ELEMENT_SET_NO":"999","BSTAR":"-0.00002894000000","REF_FRAME":"TEME","SITE":"AFETR","MEAN_ANOMALY":"266.4922","RA_OF_ASC_NODE":"71.5042"},{"MEAN_MOTION_DDOT":"0.0000000000000","APOAPSIS":"535.746","FILE":"3891716","TIME_SYSTEM":"UTC","MEAN_MOTION":"15.10536428","REF_FRAME":"TEME","SITE":"AFETR","ELEMENT_SET_NO":"999","BSTAR":"-0.01035600000000","NORAD_CAT_ID":"52853","EPOCH":"2023-04-22T00:00:02.000160","RA_OF_ASC_NODE":"69.8103","MEAN_ANOMALY":"217.0971","OBJECT_ID":"2022-062Z","PERIAPSIS":"533.384","TLE_LINE2":"2 52853  53.2157  69.8103 0001708 104.4710 217.0971 15.10536428  1304","MEAN_ELEMENT_THEORY":"SGP4","DECAY_DATE":null,"OBJECT_NAME":"STARLINK-4189","OBJECT_TYPE":"PAYLOAD","REV_AT_EPOCH":"130","EPHEMERIS_TYPE":"0","MEAN_MOTION_DOT":"-0.00168971","PERIOD":"95.330","LAUNCH_DATE":"2022-06-17","CENTER_NAME":"EARTH","RCS_SIZE":"LARGE","TLE_LINE1":"1 52853U 22062Z   23112.00002315 -.00168971  00000-0 -10356-1 0  9995","COUNTRY_CODE":"US","GP_ID":"230529790","SEMIMAJOR_AXIS":"6912.700","CLASSIFICATION_TYPE":"U","INCLINATION":"53.2157","ECCENTRICITY":"0.00017080","ARG_OF_PERICENTER":"104.4710"},{"MEAN_MOTION":"15.08839549","FILE":"3891716","APOAPSIS":"540.652","MEAN_MOTION_DDOT":"0.0000000000000","TIME_SYSTEM":"UTC","RA_OF_ASC_NODE":"71.5550","MEAN_ANOMALY":"282.1516","SITE":"AFETR","REF_FRAME":"TEME","EPOCH":"2023-04-21T14:45:23.533344","NORAD_CAT_ID":"52854","BSTAR":"0.00018499000000","ELEMENT_SET_NO":"999","OBJECT_NAME":"STARLINK-4204","OBJECT_TYPE":"PAYLOAD","MEAN_ELEMENT_THEORY":"SGP4","DECAY_DATE":null,"EPHEMERIS_TYPE":"0","REV_AT_EPOCH":"4694","OBJECT_ID":"2022-062AA","TLE_LINE2":"2 52854  53.2153  71.5550 0001308  77.9623 282.1516 15.08839549 46944","PERIAPSIS":"538.842","CLASSIFICATION_TYPE":"U","COUNTRY_CODE":"US","TLE_LINE1":"1 52854U 22062AA  23111.61485571  .00002657  00000-0  18499-3 0  9995","GP_ID":"230530042","SEMIMAJOR_AXIS":"6917.882","INCLINATION":"53.2153","ECCENTRICITY":"0.00013080","ARG_OF_PERICENTER":"77.9623","LAUNCH_DATE":"2022-06-17","CENTER_NAME":"EARTH","MEAN_MOTION_DOT":"0.00002657","PERIOD":"95.438","RCS_SIZE":"LARGE"},{"MEAN_ANOMALY":"261.3029","RA_OF_ASC_NODE":"70.4172","ELEMENT_SET_NO":"999","BSTAR":"0.00002448300000","NORAD_CAT_ID":"52855","EPOCH":"2023-04-21T20:51:02.039904","REF_FRAME":"TEME","SITE":"AFETR","MEAN_MOTION":"15.08842356","TIME_SYSTEM":"UTC","MEAN_MOTION_DDOT":"0.0000000000000","APOAPSIS":"540.476","FILE":"3891716","INCLINATION":"53.2187","ARG_OF_PERICENTER":"98.8084","ECCENTRICITY":"0.00010670","GP_ID":"230528796","TLE_LINE1":"1 52855U 22062AB  23111.86877361  .00000102  00000-0  24483-4 0  9999","SEMIMAJOR_AXIS":"6917.873","COUNTRY_CODE":"US","CLASSIFICATION_TYPE":"U","RCS_SIZE":"LARGE","PERIOD":"95.437","MEAN_MOTION_DOT":"0.00000102","LAUNCH_DATE":"2022-06-17","CENTER_NAME":"EARTH","REV_AT_EPOCH":"4698","EPHEMERIS_TYPE":"0","MEAN_ELEMENT_THEORY":"SGP4","DECAY_DATE":null,"OBJECT_NAME":"STARLINK-4209","OBJECT_TYPE":"PAYLOAD","PERIAPSIS":"539.000","TLE_LINE2":"2 52855  53.2187  70.4172 0001067  98.8084 261.3029 15.08842356 46987","OBJECT_ID":"2022-062AB"}];
